ONEWEB-0461             
1 51649U 22012AD  25343.16085875  .00000125  00000+0  28751-3 0  9992
2 51649  87.9122  43.6307 0001635 100.0049 260.1267 13.17650354188868
ONEWEB-0463             
1 51650U 22012AE  25343.14229809  .00000064  00000+0  13182-3 0  9993
2 51650  87.9103  43.6784 0001777 102.5367 257.5963 13.17648491188643
ONEWEB-0464             
1 51651U 22012AF  25342.75001758 -.00000621  00000+0 -18157-2 0  9998
2 51651  87.8805  74.2515 0001853  97.4733 262.6605 13.10372262184388
ONEWEB-0468             
1 51652U 22012AG  25342.75665751 -.00000571  00000+0 -16730-2 0  9997
2 51652  87.8810  74.2431 0001848 103.6431 256.4902 13.10374076184365
ONEWEB-0473             
1 51653U 22012AH  25343.19986896 -.00000297  00000+0 -88815-3 0  9992
2 51653  87.8804  74.1578 0001767 106.3741 253.7580 13.10370472184429
ONEWEB-0474             
1 51654U 22012AJ  25343.19157646  .00000054  00000+0  11959-3 0  9990
2 51654  87.8812  74.1257 0001893 101.0922 259.0418 13.10369555184414
ONEWEB-0475             
1 51655U 22012AK  25343.15410740  .00000020  00000+0  19073-4 0  9993
2 51655  87.9110  43.6650 0002469 103.2794 256.8613 13.17648877188663
ONEWEB-0490             
1 54113U 22138A   25343.06188700  .00000017  00000+0  10005-4 0  9994
2 54113  87.9205 342.7868 0001956  85.4005 274.7351 13.19724840151755
